start=new Date('2022-09-15T00:00:00.000Z').valueOf();
sats=[{"LAUNCH_DATE":"2021-03-11","NORAD_CAT_ID":"47830","OBJECT_TYPE":"PAYLOAD","MEAN_ANOMALY":"295.8791","CENTER_NAME":"EARTH","APOAPSIS":"548.235","PERIOD":"95.592","MEAN_MOTION":"15.06396247","SEMIMAJOR_AXIS":"6925.360","OBJECT_ID":"2021-018AV","TLE_LINE2":"2 47830  53.0536 211.0661 0001459  64.2348 295.8791 15.06396247 84757","TIME_SYSTEM":"UTC","ELEMENT_SET_NO":"999","OBJECT_NAME":"STARLINK-2419","ARG_OF_PERICENTER":"64.2348","RA_OF_ASC_NODE":"211.0661","REV_AT_EPOCH":"8475","FILE":"3574287","MEAN_ELEMENT_THEORY":"SGP4","EPOCH":"2022-09-14T20:47:47.678784","DECAY_DATE":null,"REF_FRAME":"TEME","RCS_SIZE":"LARGE","COUNTRY_CODE":"US","EPHEMERIS_TYPE":"0","CLASSIFICATION_TYPE":"U","INCLINATION":"53.0536","SITE":"AFETR","TLE_LINE1":"1 47830U 21018AV  22257.86652406 -.00000400  00000-0 -79700-5 0  9993","ECCENTRICITY":"0.00014590","BSTAR":"-0.00000797000000","MEAN_MOTION_DOT":"-0.00000400","GP_ID":"212611123","PERIAPSIS":"546.215","MEAN_MOTION_DDOT":"0.0000000000000"},{"INCLINATION":"53.0505","ECCENTRICITY":"0.00011290","TLE_LINE1":"1 47831U 21018AW  22257.80063207  .00001866  00000-0  14412-3 0  9995","SITE":"AFETR","PERIAPSIS":"546.453","GP_ID":"212611874","MEAN_MOTION_DOT":"0.00001866","BSTAR":"0.00014412000000","MEAN_MOTION_DDOT":"0.0000000000000","OBJECT_NAME":"STARLINK-2420","ELEMENT_SET_NO":"999","RA_OF_ASC_NODE":"186.3590","ARG_OF_PERICENTER":"72.9213","REV_AT_EPOCH":"8515","RCS_SIZE":"LARGE","REF_FRAME":"TEME","DECAY_DATE":null,"EPOCH":"2022-09-14T19:12:54.610848","FILE":"3574287","MEAN_ELEMENT_THEORY":"SGP4","CLASSIFICATION_TYPE":"U","EPHEMERIS_TYPE":"0","COUNTRY_CODE":"US","SEMIMAJOR_AXIS":"6925.369","OBJECT_ID":"2021-018AW","TLE_LINE2":"2 47831  53.0505 186.3590 0001129  72.9213 287.1899 15.06393175 85155","TIME_SYSTEM":"UTC","OBJECT_TYPE":"PAYLOAD","NORAD_CAT_ID":"47831","LAUNCH_DATE":"2021-03-11","MEAN_ANOMALY":"287.1899","MEAN_MOTION":"15.06393175","PERIOD":"95.593","APOAPSIS":"548.016","CENTER_NAME":"EARTH"},{"DECAY_DATE":null,"REF_FRAME":"TEME","RCS_SIZE":"LARGE","FILE":"3574287","MEAN_ELEMENT_THEORY":"SGP4","EPOCH":"2022-09-14T13:23:16.054944","CLASSIFICATION_TYPE":"U","COUNTRY_CODE":"US","EPHEMERIS_TYPE":"0","OBJECT_NAME":"STARLINK-2422","ELEMENT_SET_NO":"999","RA_OF_ASC_NODE":"202.4459","ARG_OF_PERICENTER":"70.5278","REV_AT_EPOCH":"8485","GP_ID":"212612116","PERIAPSIS":"546.219","BSTAR":"0.00005336000000","MEAN_MOTION_DOT":"0.00000513","MEAN_MOTION_DDOT":"0.0000000000000","INCLINATION":"53.0559","ECCENTRICITY":"0.00014700","SITE":"AFETR","TLE_LINE1":"1 47832U 21018AX  22257.55782471  .00000513  00000-0  53360-4 0  9993","PERIOD":"95.593","MEAN_MOTION":"15.06392267","CENTER_NAME":"EARTH","APOAPSIS":"548.255","OBJECT_TYPE":"PAYLOAD","LAUNCH_DATE":"2021-03-11","NORAD_CAT_ID":"47832","MEAN_ANOMALY":"289.5869","OBJECT_ID":"2021-018AX","SEMIMAJOR_AXIS":"6925.372","TLE_LINE2":"2 47832  53.0559 202.4459 0001470  70.5278 289.5869 15.06392267 84853","TIME_SYSTEM":"UTC"},{"MEAN_ANOMALY":"313.0096","OBJECT_TYPE":"PAYLOAD","NORAD_CAT_ID":"47833","LAUNCH_DATE":"2021-03-11","MEAN_MOTION":"15.06423928","PERIOD":"95.591","APOAPSIS":"548.003","CENTER_NAME":"EARTH","TIME_SYSTEM":"UTC","TLE_LINE2":"2 47833  53.0532 203.8141 0001246  47.0997 313.0096 15.06423928 84478","OBJECT_ID":"2021-018AY","SEMIMAJOR_AXIS":"6925.275","RA_OF_ASC_NODE":"203.8141","ARG_OF_PERICENTER":"47.0997","REV_AT_EPOCH":"8447","OBJECT_NAME":"STARLINK-2423","ELEMENT_SET_NO":"999","CLASSIFICATION_TYPE":"U","COUNTRY_CODE":"US","EPHEMERIS_TYPE":"0","RCS_SIZE":"LARGE","REF_FRAME":"TEME","DECAY_DATE":null,"EPOCH":"2022-09-14T06:02:42.970272","FILE":"3574152","MEAN_ELEMENT_THEORY":"SGP4","ECCENTRICITY":"0.00012460","TLE_LINE1":"1 47833U 21018AY  22257.25188623 -.00007077  00000-0 -45641-3 0  9996","SITE":"AFETR","INCLINATION":"53.0532","MEAN_MOTION_DDOT":"0.0000000000000","PERIAPSIS":"546.277","GP_ID":"212588002","MEAN_MOTION_DOT":"-0.00007077","BSTAR":"-0.00045641000000"},{"TLE_LINE2":"2 47834  53.0541 201.0860 0001511  70.9002 289.2151 15.06400427 84952","TIME_SYSTEM":"UTC","OBJECT_ID":"2021-018AZ","SEMIMAJOR_AXIS":"6925.347","MEAN_MOTION":"15.06400427","PERIOD":"95.592","APOAPSIS":"548.259","CENTER_NAME":"EARTH","MEAN_ANOMALY":"289.2151","OBJECT_TYPE":"PAYLOAD","NORAD_CAT_ID":"47834","LAUNCH_DATE":"2021-03-11","MEAN_MOTION_DDOT":"0.0000000000000","GP_ID":"212611623","PERIAPSIS":"546.166","MEAN_MOTION_DOT":"0.00000848","BSTAR":"0.00007581300000","ECCENTRICITY":"0.00015110","TLE_LINE1":"1 47834U 21018AZ  22257.86006744  .00000848  00000-0  75813-4 0  9999","SITE":"AFETR","INCLINATION":"53.0541","CLASSIFICATION_TYPE":"U","EPHEMERIS_TYPE":"0","COUNTRY_CODE":"US","RCS_SIZE":"LARGE","REF_FRAME":"TEME","DECAY_DATE":null,"EPOCH":"2022-09-14T20:38:29.826816","MEAN_ELEMENT_THEORY":"SGP4","FILE":"3574287","RA_OF_ASC_NODE":"201.0860","ARG_OF_PERICENTER":"70.9002","REV_AT_EPOCH":"8495","OBJECT_NAME":"STARLINK-2424","ELEMENT_SET_NO":"999"},{"TIME_SYSTEM":"UTC","TLE_LINE2":"2 47835  53.0550 208.7698 0001424  83.8784 276.2367 15.06394642 84731","SEMIMAJOR_AXIS":"6925.365","OBJECT_ID":"2021-018BA","APOAPSIS":"548.216","CENTER_NAME":"EARTH","PERIOD":"95.592","MEAN_MOTION":"15.06394642","MEAN_ANOMALY":"276.2367","LAUNCH_DATE":"2021-03-11","NORAD_CAT_ID":"47835","OBJECT_TYPE":"PAYLOAD","MEAN_MOTION_DDOT":"0.0000000000000","BSTAR":"0.00004848300000","MEAN_MOTION_DOT":"0.00000441","PERIAPSIS":"546.244","GP_ID":"212581210","SITE":"AFETR","TLE_LINE1":"1 47835U 21018BA  22257.29014810  .00000441  00000-0  48483-4 0  9992","ECCENTRICITY":"0.00014240","INCLINATION":"53.0550","COUNTRY_CODE":"US","EPHEMERIS_TYPE":"0","CLASSIFICATION_TYPE":"U","FILE":"3574027","MEAN_ELEMENT_THEORY":"SGP4","EPOCH":"2022-09-14T06:57:48.795840","REF_FRAME":"TEME","DECAY_DATE":null,"RCS_SIZE":"LARGE","REV_AT_EPOCH":"8473","RA_OF_ASC_NODE":"208.7698","ARG_OF_PERICENTER":"83.8784","ELEMENT_SET_NO":"999","OBJECT_NAME":"STARLINK-2425"},{"MEAN_ANOMALY":"287.7725","LAUNCH_DATE":"2021-03-11","NORAD_CAT_ID":"47836","OBJECT_TYPE":"PAYLOAD","APOAPSIS":"548.384","CENTER_NAME":"EARTH","PERIOD":"95.592","MEAN_MOTION":"15.06394340","TLE_LINE2":"2 47836  53.0543 203.7774 0001665  72.3446 287.7725 15.06394340 84818","TIME_SYSTEM":"UTC","OBJECT_ID":"2021-018BB","SEMIMAJOR_AXIS":"6925.366","REV_AT_EPOCH":"8481","RA_OF_ASC_NODE":"203.7774","ARG_OF_PERICENTER":"72.3446","ELEMENT_SET_NO":"999","OBJECT_NAME":"STARLINK-2426","COUNTRY_CODE":"US","EPHEMERIS_TYPE":"0","CLASSIFICATION_TYPE":"U","FILE":"3574027","MEAN_ELEMENT_THEORY":"SGP4","EPOCH":"2022-09-14T06:45:12.207456","DECAY_DATE":null,"REF_FRAME":"TEME","RCS_SIZE":"LARGE","SITE":"AFETR","TLE_LINE1":"1 47836U 21018BB  22257.28139129 -.00000035  00000-0  16568-4 0  9992","ECCENTRICITY":"0.00016650","INCLINATION":"53.0543","MEAN_MOTION_DDOT":"0.0000000000000","BSTAR":"0.00001656800000","MEAN_MOTION_DOT":"-0.00000035","PERIAPSIS":"546.078","GP_ID":"212581960"},{"ARG_OF_PERICENTER":"73.7875","RA_OF_ASC_NODE":"181.2580","REV_AT_EPOCH":"8518","OBJECT_NAME":"STARLINK-2427","ELEMENT_SET_NO":"999","CLASSIFICATION_TYPE":"U","COUNTRY_CODE":"US","EPHEMERIS_TYPE":"0","RCS_SIZE":"LARGE","DECAY_DATE":null,"REF_FRAME":"TEME","EPOCH":"2022-09-14T19:42:45.961920","FILE":"3574287","MEAN_ELEMENT_THEORY":"SGP4","ECCENTRICITY":"0.00013200","TLE_LINE1":"1 47837U 21018BC  22257.82136530 -.00001080  00000-0 -53620-4 0  9998","SITE":"AFETR","INCLINATION":"53.0548","MEAN_MOTION_DDOT":"0.0000000000000","GP_ID":"212611376","PERIAPSIS":"546.302","MEAN_MOTION_DOT":"-0.00001080","BSTAR":"-0.00005362000000","MEAN_ANOMALY":"286.3259","OBJECT_TYPE":"PAYLOAD","NORAD_CAT_ID":"47837","LAUNCH_DATE":"2021-03-11","MEAN_MOTION":"15.06399189","PERIOD":"95.592","APOAPSIS":"548.130","CENTER_NAME":"EARTH","TLE_LINE2":"2 47837  53.0548 181.2580 0001320  73.7875 286.3259 15.06399189 85182","TIME_SYSTEM":"UTC","SEMIMAJOR_AXIS":"6925.351","OBJECT_ID":"2021-018BC"},{"MEAN_ANOMALY":"303.3834","NORAD_CAT_ID":"47838","LAUNCH_DATE":"2021-03-11","OBJECT_TYPE":"PAYLOAD","APOAPSIS":"548.368","CENTER_NAME":"EARTH","MEAN_MOTION":"15.06400259","PERIOD":"95.592","TIME_SYSTEM":"UTC","TLE_LINE2":"2 47838  53.0562 201.2113 0001668  56.7314 303.3834 15.06400259 84569","OBJECT_ID":"2021-018BD","SEMIMAJOR_AXIS":"6925.348","RA_OF_ASC_NODE":"201.2113","ARG_OF_PERICENTER":"56.7314","REV_AT_EPOCH":"8456","ELEMENT_SET_NO":"999","OBJECT_NAME":"STARLINK-2429","COUNTRY_CODE":"US","EPHEMERIS_TYPE":"0","CLASSIFICATION_TYPE":"U","EPOCH":"2022-09-14T20:01:20.470080","MEAN_ELEMENT_THEORY":"SGP4","FILE":"3574080","RCS_SIZE":"MEDIUM","DECAY_DATE":null,"REF_FRAME":"TEME","TLE_LINE1":"1 47838U 21018BD  22257.83426470  .00000472  00000-0  50586-4 0  9995","SITE":"AFETR","ECCENTRICITY":"0.00016680","INCLINATION":"53.0562","MEAN_MOTION_DDOT":"0.0000000000000","MEAN_MOTION_DOT":"0.00000472","BSTAR":"0.00005058600000","PERIAPSIS":"546.058","GP_ID":"212585876"},{"SEMIMAJOR_AXIS":"6925.328","OBJECT_ID":"2021-018BE","TIME_SYSTEM":"UTC","TLE_LINE2":"2 47839  53.0542 171.3566 0001330  69.9903 290.1229 15.06406657 85327","APOAPSIS":"548.114","CENTER_NAME":"EARTH","MEAN_MOTION":"15.06406657","PERIOD":"95.592","NORAD_CAT_ID":"47839","LAUNCH_DATE":"2021-03-11","OBJECT_TYPE":"PAYLOAD","MEAN_ANOMALY":"290.1229","MEAN_MOTION_DOT":"-0.00002854","BSTAR":"-0.00017278000000","GP_ID":"212611875","PERIAPSIS":"546.272","MEAN_MOTION_DDOT":"0.0000000000000","INCLINATION":"53.0542","TLE_LINE1":"1 47839U 21018BE  22257.79648714 -.00002854  00000-0 -17278-3 0  9996","SITE":"AFETR","ECCENTRICITY":"0.00013300","EPOCH":"2022-09-14T19:06:56.488896","FILE":"3574287","MEAN_ELEMENT_THEORY":"SGP4","RCS_SIZE":"LARGE","REF_FRAME":"TEME","DECAY_DATE":null,"EPHEMERIS_TYPE":"0","COUNTRY_CODE":"US","CLASSIFICATION_TYPE":"U","ELEMENT_SET_NO":"999","OBJECT_NAME":"STARLINK-2431","RA_OF_ASC_NODE":"171.3566","REV_AT_EPOCH":"8532","ARG_OF_PERICENTER":"69.9903"}];
